{"type": "FeatureCollection", "features": [ {"type": "Feature", "properties": {"norad_id": 34001, "name": "COSMOS 2251 DEB", "group": "cosmos-2251-debris", "lat": -73.08713992995409, "lon": -163.3067390222009, "alt_km": 770.2276345828059, "timestamp": "2025-12-20T16:47:36.678116+00:00", "meta": {"OBJECT_NAME": "COSMOS 2251 DEB", "OBJECT_ID": "1993-036GL", "EPOCH": "2025-12-20T11:03:53.252064", "MEAN_MOTION": 14.37106972, "ECCENTRICITY": 0.0020311, "INCLINATION": 74.0389, "RA_OF_ASC_NODE": 267.3898, "ARG_OF_PERICENTER": 346.9437, "MEAN_ANOMALY": 134.5055, "EPHEMERIS_TYPE": 0, "CLASSIFICATION_TYPE": "U", "NORAD_CAT_ID": 34001, "ELEMENT_SET_NO": 999, "REV_AT_EPOCH": 88257, "BSTAR": 0.0001375, "MEAN_MOTION_DOT": 3.83e-06, "MEAN_MOTION_DDOT": 0}, "tle": {"line1": "1 34001U 93036GL  25354.46103301  .00000383  00000+0  13750-3 0  9998", "line2": "2 34001  74.0389 267.3898 0020311 346.9437 134.5055 14.37106972882570"}}, "geometry": {"type": "Point", "coordinates": [-163.3067390222009, -73.08713992995409]}}, {"type": "Feature", "properties": {"norad_id": 34003, "name": "COSMOS 2251 DEB", "group": "cosmos-2251-debris", "lat": 74.05496140424157, "lon": 4.1491772382687255, "alt_km": 863.8145614128962, "timestamp": "2025-12-20T16:47:36.678126+00:00", "meta": {"OBJECT_NAME": "COSMOS 2251 DEB", "OBJECT_ID": "1993-036GN", "EPOCH": "2025-12-20T04:14:07.272384", "MEAN_MOTION": 13.84190171, "ECCENTRICITY": 0.0274902, "INCLINATION": 74.0776, "RA_OF_ASC_NODE": 272.6258, "ARG_OF_PERICENTER": 22.9254, "MEAN_ANOMALY": 338.3867, "EPHEMERIS_TYPE": 0, "CLASSIFICATION_TYPE": "U", "NORAD_CAT_ID": 34003, "ELEMENT_SET_NO": 999, "REV_AT_EPOCH": 84528, "BSTAR": 0.0014188, "MEAN_MOTION_DOT": 2.098e-05, "MEAN_MOTION_DDOT": 0}, "tle": {"line1": "1 34003U 93036GN  25354.17647306  .00002098  00000+0  14188-2 0  9996", "line2": "2 34003  74.0776 272.6258 0274902  22.9254 338.3867 13.84190171845283"}}, "geometry": {"type": "Point", "coordinates": [4.1491772382687255, 74.05496140424157]}}, {"type": "Feature", "properties": {"norad_id": 34004, "name": "COSMOS 2251 DEB", "group": "cosmos-2251-debris", "lat": 34.6740546448921, "lon": 106.76256861352229, "alt_km": 749.0576384386441, "timestamp": "2025-12-20T16:47:36.678136+00:00", "meta": {"OBJECT_NAME": "COSMOS 2251 DEB", "OBJECT_ID": "1993-036GP", "EPOCH": "2025-12-19T05:20:10.228704", "MEAN_MOTION": 14.49065638, "ECCENTRICITY": 0.0033435, "INCLINATION": 74.0356, "RA_OF_ASC_NODE": 300.9531, "ARG_OF_PERICENTER": 312.416, "MEAN_ANOMALY": 47.4172, "EPHEMERIS_TYPE": 0, "CLASSIFICATION_TYPE": "U", "NORAD_CAT_ID": 34004, "ELEMENT_SET_NO": 999, "REV_AT_EPOCH": 88124, "BSTAR": 0.00086157, "MEAN_MOTION_DOT": 3.268e-05, "MEAN_MOTION_DDOT": 0}, "tle": {"line1": "1 34004U 93036GP  25353.22234061  .00003268  00000+0  86157-3 0  9998", "line2": "2 34004  74.0356 300.9531 0033435 312.4160  47.4172 14.49065638881248"}}, "geometry": {"type": "Point", "coordinates": [106.76256861352229, 34.6740546448921]}}, {"type": "Feature", "properties": {"norad_id": 34005, "name": "COSMOS 2251 DEB", "group": "cosmos-2251-debris", "lat": 12.328821377119326, "lon": 15.356243165432362, "alt_km": 771.1884728867262, "timestamp": "2025-12-20T16:47:36.678147+00:00", "meta": {"OBJECT_NAME": "COSMOS 2251 DEB", "OBJECT_ID": "1993-036GQ", "EPOCH": "2025-12-19T07:28:53.752800", "MEAN_MOTION": 14.4030881, "ECCENTRICITY": 0.0021069, "INCLINATION": 74.0437, "RA_OF_ASC_NODE": 201.5051, "ARG_OF_PERICENTER": 318.6209, "MEAN_ANOMALY": 214.5502, "EPHEMERIS_TYPE": 0, "CLASSIFICATION_TYPE": "U", "NORAD_CAT_ID": 34005, "ELEMENT_SET_NO": 999, "REV_AT_EPOCH": 88473, "BSTAR": 8.2213e-05, "MEAN_MOTION_DOT": 2.35e-06, "MEAN_MOTION_DDOT": 0}, "tle": {"line1": "1 34005U 93036GQ  25353.31173325  .00000235  00000+0  82213-4 0  9995", "line2": "2 34005  74.0437 201.5051 0021069 318.6209 214.5502 14.40308810884738"}}, "geometry": {"type": "Point", "coordinates": [15.356243165432362, 12.328821377119326]}}, {"type": "Feature", "properties": {"norad_id": 34006, "name": "COSMOS 2251 DEB", "group": "cosmos-2251-debris", "lat": -18.364968905108217, "lon": -47.30377168103018, "alt_km": 591.9532699232013, "timestamp": "2025-12-20T16:47:36.678157+00:00", "meta": {"OBJECT_NAME": "COSMOS 2251 DEB", "OBJECT_ID": "1993-036GR", "EPOCH": "2025-12-20T11:22:33.763296", "MEAN_MOTION": 14.95235799, "ECCENTRICITY": 0.0011334, "INCLINATION": 74.0536, "RA_OF_ASC_NODE": 127.7041, "ARG_OF_PERICENTER": 64.0871, "MEAN_ANOMALY": 0.2864, "EPHEMERIS_TYPE": 0, "CLASSIFICATION_TYPE": "U", "NORAD_CAT_ID": 34006, "ELEMENT_SET_NO": 999, "REV_AT_EPOCH": 88784, "BSTAR": 0.0021723, "MEAN_MOTION_DOT": 0.00023977, "MEAN_MOTION_DDOT": 0}, "tle": {"line1": "1 34006U 93036GR  25354.47400189  .00023977  00000+0  21723-2 0  9990", "line2": "2 34006  74.0536 127.7041 0011334  64.0871   0.2864 14.95235799887849"}}, "geometry": {"type": "Point", "coordinates": [-47.30377168103018, -18.364968905108217]}}, {"type": "Feature", "properties": {"norad_id": 34007, "name": "COSMOS 2251 DEB", "group": "cosmos-2251-debris", "lat": -8.670370770514168, "lon": -30.93187020940512, "alt_km": 693.304977421446, "timestamp": "2025-12-20T16:47:36.678166+00:00", "meta": {"OBJECT_NAME": "COSMOS 2251 DEB", "OBJECT_ID": "1993-036GS", "EPOCH": "2025-12-20T05:21:39.955968", "MEAN_MOTION": 14.64833555, "ECCENTRICITY": 0.0044242, "INCLINATION": 74.0189, "RA_OF_ASC_NODE": 332.4894, "ARG_OF_PERICENTER": 104.9698, "MEAN_ANOMALY": 255.6374, "EPHEMERIS_TYPE": 0, "CLASSIFICATION_TYPE": "U", "NORAD_CAT_ID": 34007, "ELEMENT_SET_NO": 999, "REV_AT_EPOCH": 89189, "BSTAR": 0.00047353, "MEAN_MOTION_DOT": 2.534e-05, "MEAN_MOTION_DDOT": 0}, "tle": {"line1": "1 34007U 93036GS  25354.22337912  .00002534  00000+0  47353-3 0  9991", "line2": "2 34007  74.0189 332.4894 0044242 104.9698 255.6374 14.64833555891892"}}, "geometry": {"type": "Point", "coordinates": [-30.93187020940512, -8.670370770514168]}}, {"type": "Feature", "properties": {"norad_id": 34008, "name": "COSMOS 2251 DEB", "group": "cosmos-2251-debris", "lat": -46.415016569704314, "lon": 153.47505357141293, "alt_km": 784.8610944218453, "timestamp": "2025-12-20T16:47:36.678177+00:00", "meta": {"OBJECT_NAME": "COSMOS 2251 DEB", "OBJECT_ID": "1993-036GT", "EPOCH": "2025-12-20T09:36:02.299968", "MEAN_MOTION": 14.33151114, "ECCENTRICITY": 0.0024558, "INCLINATION": 74.0345, "RA_OF_ASC_NODE": 316.5181, "ARG_OF_PERICENTER": 310.4955, "MEAN_ANOMALY": 172.938, "EPHEMERIS_TYPE": 0, "CLASSIFICATION_TYPE": "U", "NORAD_CAT_ID": 34008, "ELEMENT_SET_NO": 999, "REV_AT_EPOCH": 88074, "BSTAR": 8.7255e-05, "MEAN_MOTION_DOT": 2.14e-06, "MEAN_MOTION_DDOT": 0}, "tle": {"line1": "1 34008U 93036GT  25354.40002662  .00000214  00000+0  87255-4 0  9992", "line2": "2 34008  74.0345 316.5181 0024558 310.4955 172.9380 14.33151114880747"}}, "geometry": {"type": "Point", "coordinates": [153.47505357141293, -46.415016569704314]}}, {"type": "Feature", "properties": {"norad_id": 34009, "name": "COSMOS 2251 DEB", "group": "cosmos-2251-debris", "lat": -73.75006269827067, "lon": -138.50011919793835, "alt_km": 798.2540279845307, "timestamp": "2025-12-20T16:47:36.678187+00:00", "meta": {"OBJECT_NAME": "COSMOS 2251 DEB", "OBJECT_ID": "1993-036GU", "EPOCH": "2025-12-20T09:25:26.896224", "MEAN_MOTION": 14.33227925, "ECCENTRICITY": 0.0026793, "INCLINATION": 74.0374, "RA_OF_ASC_NODE": 322.9505, "ARG_OF_PERICENTER": 30.3083, "MEAN_ANOMALY": 93.2477, "EPHEMERIS_TYPE": 0, "CLASSIFICATION_TYPE": "U", "NORAD_CAT_ID": 34009, "ELEMENT_SET_NO": 999, "REV_AT_EPOCH": 88055, "BSTAR": 0.00010775, "MEAN_MOTION_DOT": 2.71e-06, "MEAN_MOTION_DDOT": 0}, "tle": {"line1": "1 34009U 93036GU  25354.39267241  .00000271  00000+0  10775-3 0  9992", "line2": "2 34009  74.0374 322.9505 0026793  30.3083  93.2477 14.33227925880559"}}, "geometry": {"type": "Point", "coordinates": [-138.50011919793835, -73.75006269827067]}}, {"type": "Feature", "properties": {"norad_id": 34010, "name": "COSMOS 2251 DEB", "group": "cosmos-2251-debris", "lat": 73.35734311224431, "lon": -19.67018416327013, "alt_km": 495.8493429281243, "timestamp": "2025-12-20T16:47:36.678197+00:00", "meta": {"OBJECT_NAME": "COSMOS 2251 DEB", "OBJECT_ID": "1993-036GV", "EPOCH": "2025-12-20T11:40:49.583136", "MEAN_MOTION": 15.19908704, "ECCENTRICITY": 0.0004542, "INCLINATION": 73.9998, "RA_OF_ASC_NODE": 267.0494, "ARG_OF_PERICENTER": 59.5736, "MEAN_ANOMALY": 300.5909, "EPHEMERIS_TYPE": 0, "CLASSIFICATION_TYPE": "U", "NORAD_CAT_ID": 34010, "ELEMENT_SET_NO": 999, "REV_AT_EPOCH": 89403, "BSTAR": 0.0027813, "MEAN_MOTION_DOT": 0.00060248, "MEAN_MOTION_DDOT": 0}, "tle": {"line1": "1 34010U 93036GV  25354.48668499  .00060248  00000+0  27813-2 0  9994", "line2": "2 34010  73.9998 267.0494 0004542  59.5736 300.5909 15.19908704894031"}}, "geometry": {"type": "Point", "coordinates": [-19.67018416327013, 73.35734311224431]}}, {"type": "Feature", "properties": {"norad_id": 34011, "name": "COSMOS 2251 DEB", "group": "cosmos-2251-debris", "lat": 20.954457085829947, "lon": 129.07533350969052, "alt_km": 765.4085942910133, "timestamp": "2025-12-20T16:47:36.678207+00:00", "meta": {"OBJECT_NAME": "COSMOS 2251 DEB", "OBJECT_ID": "1993-036GW", "EPOCH": "2025-12-20T04:24:32.203584", "MEAN_MOTION": 14.41801726, "ECCENTRICITY": 0.00360246, "INCLINATION": 74.0145, "RA_OF_ASC_NODE": 316.3349, "ARG_OF_PERICENTER": 37.7444, "MEAN_ANOMALY": 322.6228, "EPHEMERIS_TYPE": 0, "CLASSIFICATION_TYPE": "U", "NORAD_CAT_ID": 34011, "ELEMENT_SET_NO": 999, "REV_AT_EPOCH": 88023, "BSTAR": 0.00051301232, "MEAN_MOTION_DOT": 1.663e-05, "MEAN_MOTION_DDOT": 0}, "tle": {"line1": "1 34011U 93036GW  25354.18370606  .00001663  00000+0  51301-3 0  9998", "line2": "2 34011  74.0145 316.3349 0036024  37.7444 322.6228 14.41801726880235"}}, "geometry": {"type": "Point", "coordinates": [129.07533350969052, 20.954457085829947]}}]}